{"fetched_at":"2026-03-29T02:12:04Z","count":15717,"tles":[{"name":"STARLINK-31880","line1":"1 59661U 24084H   26087.57849396  .00003256  00000+0  12776-3 0  9990","line2":"2 59661  43.0021 291.5229 0001578 276.1802  83.8870 15.27584438107308","category":"Starlink"}]}